COSMOS 2251 DEB         
1 34383U 93036PY  26116.75757709  .00122133  00000+0  40093-2 0  9994
2 34383  74.0251  14.7863 0015107 159.5740 200.6071 15.30913062911643
COSMOS 2251 DEB         
1 34387U 93036QC  26116.61086542  .00000890  00000+0  26498-3 0  9992
2 34387  74.0401 321.1344 0037688  25.7504  30.2032 14.44176254901284
COSMOS 2251 DEB         
1 34388U 93036QD  26116.62940058  .00002043  00000+0  53201-3 0  9999
2 34388  74.0389 329.9376 0011882 348.8138  74.4933 14.50176550901108
COSMOS 2251 DEB         
1 34389U 93036QE  26116.75562662  .00001040  00000+0  32412-3 0  9992
2 34389  74.0204 359.3773 0028609  82.8257 341.0103 14.41899921899589
COSMOS 2251 DEB         
1 34396U 93036QM  26116.72323896  .00014178  00000+0  19524-2 0  9995
2 34396  74.0278 219.5056 0006245 243.0523 236.9275 14.78263652903380
COSMOS 2251 DEB         
1 34409U 93036RA  26116.84462595  .00000852  00000+0  18273-3 0  9998
2 34409  74.0641  50.1754 0078777  90.6535 331.3729 14.58329277911625
COSMOS 2251 DEB         
1 34410U 93036RB  26116.26986511  .00129237  00000+0  32105-2 0  9993
2 34410  73.7303 330.9041 0023268 147.5738 212.6903 15.39473272918298
COSMOS 2251 DEB         
1 34412U 93036RD  26116.84703042  .00003844  00000+0  82736-3 0  9996
2 34412  73.9463  70.1716 0186041 136.1269 225.4840 14.48559803896069
COSMOS 2251 DEB         
1 34413U 93036RE  26116.81921399  .00003023  00000+0  11295-2 0  9991
2 34413  74.0323  19.3381 0089702  66.5582   2.9221 14.30048848890619
COSMOS 2251 DEB         
1 34420U 93036RM  26116.64729889  .00000721  00000+0  11966-3 0  9998
2 34420  74.0335 202.9336 0106533 288.8359 198.8825 14.68606073917507
COSMOS 2251 DEB         
1 34425U 93036RS  26116.46404422  .00001923  00000+0  37906-3 0  9993
2 34425  74.0163 156.0904 0027880 247.4346 112.3871 14.63004677907109
COSMOS 2251 DEB         
1 34430U 93036RX  26116.55000061  .00001180  00000+0  37490-3 0  9993
2 34430  74.0519  54.5473 0059427  93.0843 267.7114 14.40012543898955
COSMOS 2251 DEB         
1 34431U 93036RY  26116.81883021  .00001190  00000+0  46693-3 0  9994
2 34431  74.0739 290.5909 0067315 241.7940 117.6401 14.29225953890728
COSMOS 2251 DEB         
1 34432U 93036RZ  26116.69477494  .00001125  00000+0  63779-3 0  9996
2 34432  73.8281 224.4660 0181800 282.7251 198.1450 14.03301354875772
COSMOS 2251 DEB         
1 34433U 93036SA  26116.82664756  .00002054  00000+0  98760-3 0  9991
2 34433  74.0080 275.4856 0151006  23.0423 337.7395 14.13635395878585
COSMOS 2251 DEB         
1 34434U 93036SB  26116.50678112  .00004275  00000+0  24702-2 0  9999
2 34434  74.0576 140.6388 0283431 245.5843 239.6857 13.91050172858393
