[{"OBJECT_NAME":"COSMOS 2251 DEB","OBJECT_ID":"1993-036PY","EPOCH":"2026-04-26T18:10:54.660576","MEAN_MOTION":15.30913062,"ECCENTRICITY":0.0015107,"INCLINATION":74.0251,"RA_OF_ASC_NODE":14.7863,"ARG_OF_PERICENTER":159.574,"MEAN_ANOMALY":200.6071,"EPHEMERIS_TYPE":0,"CLASSIFICATION_TYPE":"U","NORAD_CAT_ID":34383,"ELEMENT_SET_NO":999,"REV_AT_EPOCH":91164,"BSTAR":0.0040093,"MEAN_MOTION_DOT":0.00122133,"MEAN_MOTION_DDOT":0},{"OBJECT_NAME":"COSMOS 2251 DEB","OBJECT_ID":"1993-036QC","EPOCH":"2026-04-26T14:39:38.772288","MEAN_MOTION":14.44176254,"ECCENTRICITY":0.0037688,"INCLINATION":74.0401,"RA_OF_ASC_NODE":321.1344,"ARG_OF_PERICENTER":25.7504,"MEAN_ANOMALY":30.2032,"EPHEMERIS_TYPE":0,"CLASSIFICATION_TYPE":"U","NORAD_CAT_ID":34387,"ELEMENT_SET_NO":999,"REV_AT_EPOCH":90128,"BSTAR":0.00026498,"MEAN_MOTION_DOT":8.9e-6,"MEAN_MOTION_DDOT":0},{"OBJECT_NAME":"COSMOS 2251 DEB","OBJECT_ID":"1993-036QD","EPOCH":"2026-04-26T15:06:20.210112","MEAN_MOTION":14.5017655,"ECCENTRICITY":0.0011882,"INCLINATION":74.0389,"RA_OF_ASC_NODE":329.9376,"ARG_OF_PERICENTER":348.8138,"MEAN_ANOMALY":74.4933,"EPHEMERIS_TYPE":0,"CLASSIFICATION_TYPE":"U","NORAD_CAT_ID":34388,"ELEMENT_SET_NO":999,"REV_AT_EPOCH":90110,"BSTAR":0.00053201,"MEAN_MOTION_DOT":2.043e-5,"MEAN_MOTION_DDOT":0},{"OBJECT_NAME":"COSMOS 2251 DEB","OBJECT_ID":"1993-036QE","EPOCH":"2026-04-26T18:08:06.139968","MEAN_MOTION":14.41899921,"ECCENTRICITY":0.0028609,"INCLINATION":74.0204,"RA_OF_ASC_NODE":359.3773,"ARG_OF_PERICENTER":82.8257,"MEAN_ANOMALY":341.0103,"EPHEMERIS_TYPE":0,"CLASSIFICATION_TYPE":"U","NORAD_CAT_ID":34389,"ELEMENT_SET_NO":999,"REV_AT_EPOCH":89958,"BSTAR":0.00032412,"MEAN_MOTION_DOT":1.04e-5,"MEAN_MOTION_DDOT":0},{"OBJECT_NAME":"COSMOS 2251 DEB","OBJECT_ID":"1993-036QM","EPOCH":"2026-04-26T17:21:27.846144","MEAN_MOTION":14.78263652,"ECCENTRICITY":0.0006245,"INCLINATION":74.0278,"RA_OF_ASC_NODE":219.5056,"ARG_OF_PERICENTER":243.0523,"MEAN_ANOMALY":236.9275,"EPHEMERIS_TYPE":0,"CLASSIFICATION_TYPE":"U","NORAD_CAT_ID":34396,"ELEMENT_SET_NO":999,"REV_AT_EPOCH":90338,"BSTAR":0.0019524,"MEAN_MOTION_DOT":0.00014178,"MEAN_MOTION_DDOT":0},{"OBJECT_NAME":"COSMOS 2251 DEB","OBJECT_ID":"1993-036RA","EPOCH":"2026-04-26T20:16:15.682080","MEAN_MOTION":14.58329277,"ECCENTRICITY":0.0078777,"INCLINATION":74.0641,"RA_OF_ASC_NODE":50.1754,"ARG_OF_PERICENTER":90.6535,"MEAN_ANOMALY":331.3729,"EPHEMERIS_TYPE":0,"CLASSIFICATION_TYPE":"U","NORAD_CAT_ID":34409,"ELEMENT_SET_NO":999,"REV_AT_EPOCH":91162,"BSTAR":0.00018273,"MEAN_MOTION_DOT":8.52e-6,"MEAN_MOTION_DDOT":0},{"OBJECT_NAME":"COSMOS 2251 DEB","OBJECT_ID":"1993-036RB","EPOCH":"2026-04-26T06:28:36.345504","MEAN_MOTION":15.39473272,"ECCENTRICITY":0.00232684,"INCLINATION":73.7303,"RA_OF_ASC_NODE":330.9041,"ARG_OF_PERICENTER":147.5738,"MEAN_ANOMALY":212.6903,"EPHEMERIS_TYPE":0,"CLASSIFICATION_TYPE":"U","NORAD_CAT_ID":34410,"ELEMENT_SET_NO":999,"REV_AT_EPOCH":91829,"BSTAR":0.0032104697,"MEAN_MOTION_DOT":0.00129237,"MEAN_MOTION_DDOT":0},{"OBJECT_NAME":"COSMOS 2251 DEB","OBJECT_ID":"1993-036RD","EPOCH":"2026-04-26T20:19:43.428288","MEAN_MOTION":14.48559803,"ECCENTRICITY":0.0186041,"INCLINATION":73.9463,"RA_OF_ASC_NODE":70.1716,"ARG_OF_PERICENTER":136.1269,"MEAN_ANOMALY":225.484,"EPHEMERIS_TYPE":0,"CLASSIFICATION_TYPE":"U","NORAD_CAT_ID":34412,"ELEMENT_SET_NO":999,"REV_AT_EPOCH":89606,"BSTAR":0.00082736,"MEAN_MOTION_DOT":3.844e-5,"MEAN_MOTION_DDOT":0},{"OBJECT_NAME":"COSMOS 2251 DEB","OBJECT_ID":"1993-036RE","EPOCH":"2026-04-26T19:39:40.088736","MEAN_MOTION":14.30048848,"ECCENTRICITY":0.0089702,"INCLINATION":74.0323,"RA_OF_ASC_NODE":19.3381,"ARG_OF_PERICENTER":66.5582,"MEAN_ANOMALY":2.9221,"EPHEMERIS_TYPE":0,"CLASSIFICATION_TYPE":"U","NORAD_CAT_ID":34413,"ELEMENT_SET_NO":999,"REV_AT_EPOCH":89061,"BSTAR":0.0011295,"MEAN_MOTION_DOT":3.023e-5,"MEAN_MOTION_DDOT":0},{"OBJECT_NAME":"COSMOS 2251 DEB","OBJECT_ID":"1993-036RM","EPOCH":"2026-04-26T15:32:06.624096","MEAN_MOTION":14.68606073,"ECCENTRICITY":0.0106533,"INCLINATION":74.0335,"RA_OF_ASC_NODE":202.9336,"ARG_OF_PERICENTER":288.8359,"MEAN_ANOMALY":198.8825,"EPHEMERIS_TYPE":0,"CLASSIFICATION_TYPE":"U","NORAD_CAT_ID":34420,"ELEMENT_SET_NO":999,"REV_AT_EPOCH":91750,"BSTAR":0.00011966,"MEAN_MOTION_DOT":7.21e-6,"MEAN_MOTION_DDOT":0},{"OBJECT_NAME":"COSMOS 2251 DEB","OBJECT_ID":"1993-036RS","EPOCH":"2026-04-26T11:08:13.420608","MEAN_MOTION":14.63004677,"ECCENTRICITY":0.00278803,"INCLINATION":74.0163,"RA_OF_ASC_NODE":156.0904,"ARG_OF_PERICENTER":247.4346,"MEAN_ANOMALY":112.3871,"EPHEMERIS_TYPE":0,"CLASSIFICATION_TYPE":"U","NORAD_CAT_ID":34425,"ELEMENT_SET_NO":999,"REV_AT_EPOCH":90710,"BSTAR":0.00037905555,"MEAN_MOTION_DOT":1.923e-5,"MEAN_MOTION_DDOT":0},{"OBJECT_NAME":"COSMOS 2251 DEB","OBJECT_ID":"1993-036RX","EPOCH":"2026-04-26T13:12:00.052704","MEAN_MOTION":14.40012543,"ECCENTRICITY":0.0059427,"INCLINATION":74.0519,"RA_OF_ASC_NODE":54.5473,"ARG_OF_PERICENTER":93.0843,"MEAN_ANOMALY":267.7114,"EPHEMERIS_TYPE":0,"CLASSIFICATION_TYPE":"U","NORAD_CAT_ID":34430,"ELEMENT_SET_NO":999,"REV_AT_EPOCH":89895,"BSTAR":0.0003749,"MEAN_MOTION_DOT":1.18e-5,"MEAN_MOTION_DDOT":0},{"OBJECT_NAME":"COSMOS 2251 DEB","OBJECT_ID":"1993-036RY","EPOCH":"2026-04-26T19:39:06.930144","MEAN_MOTION":14.29225953,"ECCENTRICITY":0.0067315,"INCLINATION":74.0739,"RA_OF_ASC_NODE":290.5909,"ARG_OF_PERICENTER":241.794,"MEAN_ANOMALY":117.6401,"EPHEMERIS_TYPE":0,"CLASSIFICATION_TYPE":"U","NORAD_CAT_ID":34431,"ELEMENT_SET_NO":999,"REV_AT_EPOCH":89072,"BSTAR":0.00046693,"MEAN_MOTION_DOT":1.19e-5,"MEAN_MOTION_DDOT":0},{"OBJECT_NAME":"COSMOS 2251 DEB","OBJECT_ID":"1993-036RZ","EPOCH":"2026-04-26T16:40:28.554816","MEAN_MOTION":14.03301354,"ECCENTRICITY":0.01818,"INCLINATION":73.8281,"RA_OF_ASC_NODE":224.466,"ARG_OF_PERICENTER":282.7251,"MEAN_ANOMALY":198.145,"EPHEMERIS_TYPE":0,"CLASSIFICATION_TYPE":"U","NORAD_CAT_ID":34432,"ELEMENT_SET_NO":999,"REV_AT_EPOCH":87577,"BSTAR":0.00063779,"MEAN_MOTION_DOT":1.125e-5,"MEAN_MOTION_DDOT":0},{"OBJECT_NAME":"COSMOS 2251 DEB","OBJECT_ID":"1993-036SA","EPOCH":"2026-04-26T19:50:22.349184","MEAN_MOTION":14.13635395,"ECCENTRICITY":0.0151006,"INCLINATION":74.008,"RA_OF_ASC_NODE":275.4856,"ARG_OF_PERICENTER":23.0423,"MEAN_ANOMALY":337.7395,"EPHEMERIS_TYPE":0,"CLASSIFICATION_TYPE":"U","NORAD_CAT_ID":34433,"ELEMENT_SET_NO":999,"REV_AT_EPOCH":87858,"BSTAR":0.0009876,"MEAN_MOTION_DOT":2.054e-5,"MEAN_MOTION_DDOT":0},{"OBJECT_NAME":"COSMOS 2251 DEB","OBJECT_ID":"1993-036SB","EPOCH":"2026-04-26T12:09:45.888768","MEAN_MOTION":13.91050172,"ECCENTRICITY":0.02834315,"INCLINATION":74.0576,"RA_OF_ASC_NODE":140.6388,"ARG_OF_PERICENTER":245.5843,"MEAN_ANOMALY":239.6857,"EPHEMERIS_TYPE":0,"CLASSIFICATION_TYPE":"U","NORAD_CAT_ID":34434,"ELEMENT_SET_NO":999,"REV_AT_EPOCH":85839,"BSTAR":0.0024702202,"MEAN_MOTION_DOT":4.275e-5,"MEAN_MOTION_DDOT":0}]
